OBJECT_NAME,OBJECT_ID,EPOCH,MEAN_MOTION,ECCENTRICITY,INCLINATION,RA_OF_ASC_NODE,ARG_OF_PERICENTER,MEAN_ANOMALY,EPHEMERIS_TYPE,CLASSIFICATION_TYPE,NORAD_CAT_ID,ELEMENT_SET_NO,REV_AT_EPOCH,BSTAR,MEAN_MOTION_DOT,MEAN_MOTION_DDOT
NAVSTAR 71 (USA 256),2014-045A,2026-06-11T01:41:19.002048,2.00557949,.0033049,55.3493,88.7087,118.3165,242.0048,0,U,40105,999,8595,0,-.16E-6,0
ASIASAT 8 (AMOS-7),2014-046A,2026-06-11T22:18:04.093056,1.00268976,.00012619,0.0020,347.6670,100.8257,251.6063,0,U,40107,999,10209,0,-.316E-5,0
YAOGAN-20 01A,2014-047A,2026-06-11T22:26:34.431072,13.45441525,.03897288,63.3805,32.6897,14.6591,346.5363,0,U,40109,999,58173,-.12310027E-3,-.206E-5,0
YAOGAN-20 01B,2014-047B,2026-06-11T22:28:58.192896,13.45439332,.03895643,63.3805,33.5634,14.6818,346.5148,0,U,40110,999,58157,-.15586206E-3,-.237E-5,0
YAOGAN-20 01C,2014-047C,2026-06-11T22:15:25.553376,13.45449844,.03896363,63.3796,33.2681,15.0695,346.1558,0,U,40111,999,58158,-.7478234E-5,-.98E-6,0
WORLDVIEW-3 (WV-3),2014-048A,2026-06-11T21:52:49.628064,14.85013080,.00014015,97.8566,237.8173,33.4544,326.6759,0,U,40115,999,64112,.87504708E-4,.693E-5,0
GAOFEN-2,2014-049A,2026-06-11T23:22:01.733088,14.80891257,.00059164,98.0114,227.1856,247.6526,112.4060,0,U,40118,999,63846,-.6019421E-5,-.1E-5,0
BRITE-PL2 (HEWELIUSZ),2014-049B,2026-06-11T19:35:36.173760,14.94577098,.00151308,97.9092,274.7753,124.3562,235.9092,0,U,40119,999,64064,.11525525E-3,.1189E-4,0
GSAT0201 (GALILEO 5),2014-050A,2026-06-10T22:46:42.297888,1.85519989,.16736333,48.8825,273.6924,179.1491,181.2193,0,U,40128,999,7820,0,-.52E-6,0
GSAT0202 (GALILEO 6),2014-050B,2026-06-09T14:06:18.101664,1.85520607,.16746766,48.9007,272.8335,179.8278,180.2807,0,U,40129,999,8034,0,-.52E-6,0
LING QIAO,2014-051A,2026-06-11T22:49:03.756288,14.30269774,.00205249,98.7057,164.7409,185.3721,174.7244,0,U,40136,999,61425,.32970087E-4,.41E-6,0
CHUANGXIN 1-04 (CX-1-04),2014-051B,2026-06-11T23:36:48.648960,14.30409147,.0021999,98.7056,164.8172,186.4843,173.6057,0,U,40137,999,61380,.23190555E-4,.16E-6,0
ASIASAT 6,2014-052A,2026-06-11T22:22:11.197920,1.00269450,.00007124,0.0178,12.4360,90.7217,252.5680,0,U,40141,999,4302,0,-.346E-5,0
YAOGAN-21,2014-053A,2026-06-11T23:36:12.574368,15.26294247,.00098772,97.1484,203.4422,108.8575,251.3736,0,U,40143,999,65416,.2214119E-3,.5682E-4,0
OPTUS 10,2014-054A,2026-06-11T20:49:49.187424,1.00271214,.00019663,0.1296,7.9349,72.8698,287.8567,0,U,40146,999,4297,0,-.131E-5,0
MEASAT-3B,2014-054B,2026-06-11T21:57:21.806208,1.00271486,.00031511,0.0538,52.9827,18.6726,249.4389,0,U,40147,999,4285,0,-.225E-5,0
SJ-11-07,2014-059A,2026-06-11T23:20:19.056192,14.63733078,.00109721,97.9944,232.4209,159.3228,200.8421,0,U,40261,999,62415,.73904511E-4,.339E-5,0
HIMAWARI-8,2014-060A,2026-06-11T22:28:10.623648,1.00269474,.00007237,0.0141,332.2657,140.6153,265.0941,0,U,40267,999,4270,0,-.26E-5,0
IRNSS-1C,2014-061A,2026-06-11T20:59:50.455392,1.00270171,.00227015,6.5049,89.0305,1.8136,207.3354,0,U,40269,999,4263,0,-.148E-5,0
INTELSAT 30 (IS-30),2014-062A,2026-06-11T14:30:16.756704,1.00277984,.00012266,0.0279,49.7090,329.1224,3.6301,0,U,40271,999,673,0,-.135E-5,0
ARSAT 1,2014-062B,2026-06-11T19:44:49.903584,1.00272199,.00017593,0.0183,24.2156,49.2627,51.0888,0,U,40272,999,4257,0,-.243E-5,0
YAOGAN-22,2014-063A,2026-06-11T22:30:57.468960,13.15530954,.00062213,100.7717,314.1243,197.1512,162.9390,0,U,40275,999,55912,.931182E-6,-.46E-6,0
EUTELSAT 53A,2014-064A,2026-06-11T22:03:05.528736,1.00271410,.0000899,0.0153,304.4688,246.8476,92.7252,0,U,40277,999,4151,0,.114E-5,0
SJ-11-08,2014-066A,2026-06-11T22:21:23.499936,14.66166695,.00108005,98.3508,307.6957,246.6613,113.3454,0,U,40286,999,62044,.14366574E-3,.74E-5,0
NAVSTAR 72 (USA 258),2014-068A,2026-06-11T10:32:39.727680,2.00575743,.00669292,56.9837,31.1762,70.3719,290.4050,0,U,40294,999,8509,0,-.62E-6,0
MERIDIAN 7,2014-069A,2026-06-11T04:51:45.258624,2.00593165,.6650366,63.4435,215.9165,270.6095,19.7049,0,U,40296,999,8511,0,.323E-5,0
ASNARO,2014-070A,2026-06-11T22:57:24.797664,15.19354631,.00051151,97.3455,239.2123,182.6607,177.4602,0,U,40298,999,64321,.32250123E-3,.6754E-4,0
YAOGAN-24,2014-072A,2026-06-11T22:20:13.203168,14.76215273,.00125974,98.1474,300.2247,282.4706,77.5094,0,U,40310,999,62294,.61010698E-4,.369E-5,0
COSMOS 2501 [GLONASS-K],2014-075A,2026-06-11T04:48:31.142880,2.13101483,.0022542,63.6159,190.5792,212.2512,147.6843,0,U,40315,999,8972,0,.121E-5,0
GSAT-16,2014-078A,2026-06-11T22:03:42.969312,1.00272796,.00075901,0.0756,91.5760,354.5833,200.1116,0,U,40332,999,4205,0,.101E-5,0
DIRECTV 14,2014-078B,2026-06-11T21:19:40.634400,1.00271223,.00003818,0.0104,344.5357,323.3247,173.0530,0,U,40333,999,4199,0,-.109E-5,0
