NAVSTAR 71 (USA 256)    
1 40105U 14045A   26162.07035882 -.00000016  00000+0  00000+0 0  9990
2 40105  55.3493  88.7087 0033049 118.3165 242.0048  2.00557949 85951
ASIASAT 8 (AMOS-7)      
1 40107U 14046A   26162.92921404 -.00000316  00000+0  00000+0 0  9994
2 40107   0.0020 347.6670 0001261 100.8257 251.6063  1.00268976102096
YAOGAN-20 01A           
1 40109U 14047A   26162.93512073 -.00000206  00000+0 -12310-3 0  9996
2 40109  63.3805  32.6897 0389728  14.6591 346.5363 13.45441525581737
YAOGAN-20 01B           
1 40110U 14047B   26162.93678464 -.00000237  00000+0 -15586-3 0  9997
2 40110  63.3805  33.5634 0389564  14.6818 346.5148 13.45439332581574
YAOGAN-20 01C           
1 40111U 14047C   26162.92737909 -.00000098  00000+0 -74782-5 0  9997
2 40111  63.3796  33.2681 0389636  15.0695 346.1558 13.45449844581582
WORLDVIEW-3 (WV-3)      
1 40115U 14048A   26162.91168551  .00000693  00000+0  87505-4 0  9997
2 40115  97.8566 237.8173 0001401  33.4544 326.6759 14.85013080641126
GAOFEN-2                
1 40118U 14049A   26162.97363117 -.00000100  00000+0 -60194-5 0  9993
2 40118  98.0114 227.1856 0005916 247.6526 112.4060 14.80891257638469
BRITE-PL2 (HEWELIUSZ)   
1 40119U 14049B   26162.81639090  .00001189  00000+0  11526-3 0  9992
2 40119  97.9092 274.7753 0015130 124.3562 235.9092 14.94577098640645
GSAT0201 (GALILEO 5)    
1 40128U 14050A   26161.94910067 -.00000052  00000+0  00000+0 0  9993
2 40128  48.8825 273.6924 1673633 179.1491 181.2193  1.85519989 78203
GSAT0202 (GALILEO 6)    
1 40129U 14050B   26160.58770951 -.00000052  00000+0  00000+0 0  9999
2 40129  48.9007 272.8335 1674676 179.8278 180.2807  1.85520607 80340
LING QIAO               
1 40136U 14051A   26162.95073792  .00000041  00000+0  32970-4 0  9993
2 40136  98.7057 164.7409 0020524 185.3721 174.7244 14.30269774614253
CHUANGXIN 1-04 (CX-1-04)
1 40137U 14051B   26162.98389640  .00000016  00000+0  23191-4 0  9996
2 40137  98.7056 164.8172 0021999 186.4843 173.6057 14.30409147613805
ASIASAT 6               
1 40141U 14052A   26162.93207405 -.00000346  00000+0  00000+0 0  9991
2 40141   0.0178  12.4360 0000712  90.7217 252.5680  1.00269450 43024
YAOGAN-21               
1 40143U 14053A   26162.98347887  .00005682  00000+0  22141-3 0  9999
2 40143  97.1484 203.4422 0009877 108.8575 251.3736 15.26294247654160
OPTUS 10                
1 40146U 14054A   26162.86793041 -.00000131  00000+0  00000+0 0  9998
2 40146   0.1296   7.9349 0001966  72.8698 287.8567  1.00271214 42972
MEASAT-3B               
1 40147U 14054B   26162.91483572 -.00000225  00000+0  00000+0 0  9994
2 40147   0.0538  52.9827 0003151  18.6726 249.4389  1.00271486 42854
SJ-11-07                
1 40261U 14059A   26162.97244278  .00000339  00000+0  73905-4 0  9994
2 40261  97.9944 232.4209 0010972 159.3228 200.8421 14.63733078624155
HIMAWARI-8              
1 40267U 14060A   26162.93623407 -.00000260  00000+0  00000+0 0  9998
2 40267   0.0141 332.2657 0000723 140.6153 265.0941  1.00269474 42700
IRNSS-1C                
1 40269U 14061A   26162.87488953 -.00000148  00000+0  00000+0 0  9994
2 40269   6.5049  89.0305 0022701   1.8136 207.3354  1.00270171 42631
INTELSAT 30 (IS-30)     
1 40271U 14062A   26162.60436061 -.00000135  00000+0  00000+0 0  9998
2 40271   0.0279  49.7090 0001226 329.1224   3.6301  1.00277984  6734
ARSAT 1                 
1 40272U 14062B   26162.82279981 -.00000243  00000+0  00000+0 0  9999
2 40272   0.0183  24.2156 0001759  49.2627  51.0888  1.00272199 42570
YAOGAN-22               
1 40275U 14063A   26162.93816515 -.00000046  00000+0  93118-6 0  9995
2 40275 100.7717 314.1243 0006221 197.1512 162.9390 13.15530954559126
EUTELSAT 53A            
1 40277U 14064A   26162.91881399  .00000114  00000+0  00000+0 0  9994
2 40277   0.0153 304.4688 0000899 246.8476  92.7252  1.00271410 41511
SJ-11-08                
1 40286U 14066A   26162.93152199  .00000740  00000+0  14367-3 0  9997
2 40286  98.3508 307.6957 0010800 246.6613 113.3454 14.66166695620446
NAVSTAR 72 (USA 258)    
1 40294U 14068A   26162.43934870 -.00000062  00000+0  00000+0 0  9990
2 40294  56.9837  31.1762 0066929  70.3719 290.4050  2.00575743 85093
MERIDIAN 7              
1 40296U 14069A   26162.20260716  .00000323  00000+0  00000+0 0  9998
2 40296  63.4435 215.9165 6650366 270.6095  19.7049  2.00593165 85114
ASNARO                  
1 40298U 14070A   26162.95653701  .00006754  00000+0  32250-3 0  9994
2 40298  97.3455 239.2123 0005115 182.6607 177.4602 15.19354631643213
YAOGAN-24               
1 40310U 14072A   26162.93070837  .00000369  00000+0  61011-4 0  9996
2 40310  98.1474 300.2247 0012597 282.4706  77.5094 14.76215273622947
COSMOS 2501 [GLONASS-K] 
1 40315U 14075A   26162.20036045  .00000121  00000+0  00000+0 0  9999
2 40315  63.6159 190.5792 0022542 212.2512 147.6843  2.13101483 89720
GSAT-16                 
1 40332U 14078A   26162.91924733  .00000101  00000+0  00000+0 0  9997
2 40332   0.0756  91.5760 0007590 354.5833 200.1116  1.00272796 42058
DIRECTV 14              
1 40333U 14078B   26162.88866475 -.00000109  00000+0  00000+0 0  9991
2 40333   0.0104 344.5357 0000381 323.3247 173.0530  1.00271223 41997
